{
  "type": "FeatureCollection",
  "features": [
    {
      "type": "Feature",
      "properties": {
        "norad_id": 37280,
        "name": "COSMOS 2251 DEB",
        "group": "cosmos-2251-debris",
        "lat": 8.58267318963666,
        "lon": 63.33650962416007,
        "alt_km": 923.8642785734919,
        "timestamp": "2025-12-10T14:53:37.485157+00:00",
        "meta_object_name": "COSMOS 2251 DEB",
        "meta_object_id": "1993-036BHU",
        "meta_epoch": "2025-12-07T22:33:59.390208",
        "meta_mean_motion": 14.19261757,
        "meta_eccentricity": 0.01314572,
        "meta_inclination": 74.0315,
        "meta_ra_of_asc_node": 65.6486,
        "meta_arg_of_pericenter": 195.2525,
        "meta_mean_anomaly": 164.4641,
        "meta_ephemeris_type": 0,
        "meta_classification_type": "U",
        "meta_norad_cat_id": 37280,
        "meta_element_set_no": 999,
        "meta_rev_at_epoch": 57255,
        "meta_bstar": 0.0024447431,
        "meta_mean_motion_dot": 5.567e-05,
        "meta_mean_motion_ddot": 0,
        "tle_line1": "1 37280U 93036BHU 25341.94027072  .00005567  00000+0  24447-2 0  9992",
        "tle_line2": "2 37280  74.0315  65.6486 0131457 195.2525 164.4641 14.19261757572550"
      },
      "geometry": {
        "type": "Point",
        "coordinates": [
          63.33650962416007,
          8.58267318963666
        ]
      }
    },
    {
      "type": "Feature",
      "properties": {
        "norad_id": 37284,
        "name": "COSMOS 2251 DEB",
        "group": "cosmos-2251-debris",
        "lat": 57.12667901705541,
        "lon": -173.18416070274827,
        "alt_km": 878.9171900124329,
        "timestamp": "2025-12-10T14:53:37.485166+00:00",
        "meta_object_name": "COSMOS 2251 DEB",
        "meta_object_id": "1993-036BHY",
        "meta_epoch": "2025-12-05T19:06:47.225088",
        "meta_mean_motion": 14.12657303,
        "meta_eccentricity": 0.01604408,
        "meta_inclination": 74.0121,
        "meta_ra_of_asc_node": 169.0185,
        "meta_arg_of_pericenter": 322.3384,
        "meta_mean_anomaly": 52.3924,
        "meta_ephemeris_type": 0,
        "meta_classification_type": "U",
        "meta_norad_cat_id": 37284,
        "meta_element_set_no": 999,
        "meta_rev_at_epoch": 59077,
        "meta_bstar": 0.001984473,
        "meta_mean_motion_dot": 4.13e-05,
        "meta_mean_motion_ddot": 0,
        "tle_line1": "1 37284U 93036BHY 25339.79637992  .00004130  00000+0  19845-2 0  9995",
        "tle_line2": "2 37284  74.0121 169.0185 0160440 322.3384  52.3924 14.12657303590776"
      },
      "geometry": {
        "type": "Point",
        "coordinates": [
          -173.18416070274827,
          57.12667901705541
        ]
      }
    },
    {
      "type": "Feature",
      "properties": {
        "norad_id": 37292,
        "name": "COSMOS 2251 DEB",
        "group": "cosmos-2251-debris",
        "lat": -66.23876031442899,
        "lon": -86.30251915805987,
        "alt_km": 1036.5584828715937,
        "timestamp": "2025-12-10T14:53:37.485175+00:00",
        "meta_object_name": "COSMOS 2251 DEB",
        "meta_object_id": "1993-036BJG",
        "meta_epoch": "2025-12-02T14:04:30.366912",
        "meta_mean_motion": 14.03226454,
        "meta_eccentricity": 0.02102512,
        "meta_inclination": 74.129,
        "meta_ra_of_asc_node": 67.3453,
        "meta_arg_of_pericenter": 73.1105,
        "meta_mean_anomaly": 289.2966,
        "meta_ephemeris_type": 0,
        "meta_classification_type": "U",
        "meta_norad_cat_id": 37292,
        "meta_element_set_no": 999,
        "meta_rev_at_epoch": 59706,
        "meta_bstar": 0.0022453288,
        "meta_mean_motion_dot": 4.236e-05,
        "meta_mean_motion_ddot": 0,
        "tle_line1": "1 37292U 93036BJG 25336.58646258  .00004236  00000+0  22453-2 0  9999",
        "tle_line2": "2 37292  74.1290  67.3453 0210251  73.1105 289.2966 14.03226454597064"
      },
      "geometry": {
        "type": "Point",
        "coordinates": [
          -86.30251915805987,
          -66.23876031442899
        ]
      }
    },
    {
      "type": "Feature",
      "properties": {
        "norad_id": 37295,
        "name": "COSMOS 2251 DEB",
        "group": "cosmos-2251-debris",
        "lat": 51.797612566106515,
        "lon": -52.91809307916626,
        "alt_km": 651.6055733931253,
        "timestamp": "2025-12-10T14:53:37.485184+00:00",
        "meta_object_name": "COSMOS 2251 DEB",
        "meta_object_id": "1993-036BJK",
        "meta_epoch": "2025-12-10T06:27:05.450112",
        "meta_mean_motion": 14.65213033,
        "meta_eccentricity": 0.00437733,
        "meta_inclination": 74.0068,
        "meta_ra_of_asc_node": 286.3868,
        "meta_arg_of_pericenter": 106.4238,
        "meta_mean_anomaly": 254.1748,
        "meta_ephemeris_type": 0,
        "meta_classification_type": "U",
        "meta_norad_cat_id": 37295,
        "meta_element_set_no": 999,
        "meta_rev_at_epoch": 82268,
        "meta_bstar": 0.00088833968,
        "meta_mean_motion_dot": 4.823e-05,
        "meta_mean_motion_ddot": 0,
        "tle_line1": "1 37295U 93036BJK 25344.26881308  .00004823  00000+0  88834-3 0  9991",
        "tle_line2": "2 37295  74.0068 286.3868 0043773 106.4238 254.1748 14.65213033822687"
      },
      "geometry": {
        "type": "Point",
        "coordinates": [
          -52.91809307916626,
          51.797612566106515
        ]
      }
    },
    {
      "type": "Feature",
      "properties": {
        "norad_id": 37305,
        "name": "COSMOS 2251 DEB",
        "group": "cosmos-2251-debris",
        "lat": 55.42100487194331,
        "lon": -40.72929020418296,
        "alt_km": 800.2518934774498,
        "timestamp": "2025-12-10T14:53:37.485193+00:00",
        "meta_object_name": "COSMOS 2251 DEB",
        "meta_object_id": "1993-036BJV",
        "meta_epoch": "2025-12-09T03:30:34.596000",
        "meta_mean_motion": 14.36113297,
        "meta_eccentricity": 0.00503049,
        "meta_inclination": 73.8703,
        "meta_ra_of_asc_node": 297.1813,
        "meta_arg_of_pericenter": 258.1201,
        "meta_mean_anomaly": 101.4307,
        "meta_ephemeris_type": 0,
        "meta_classification_type": "U",
        "meta_norad_cat_id": 37305,
        "meta_element_set_no": 999,
        "meta_rev_at_epoch": 66815,
        "meta_bstar": 0.00098361717,
        "meta_mean_motion_dot": 2.879e-05,
        "meta_mean_motion_ddot": 0,
        "tle_line1": "1 37305U 93036BJV 25343.14623375  .00002879  00000+0  98362-3 0  9993",
        "tle_line2": "2 37305  73.8703 297.1813 0050304 258.1201 101.4307 14.36113297668159"
      },
      "geometry": {
        "type": "Point",
        "coordinates": [
          -40.72929020418296,
          55.42100487194331
        ]
      }
    },
    {
      "type": "Feature",
      "properties": {
        "norad_id": 37312,
        "name": "COSMOS 2251 DEB",
        "group": "cosmos-2251-debris",
        "lat": 24.368817473469647,
        "lon": -144.4104395227426,
        "alt_km": 733.8103430202664,
        "timestamp": "2025-12-10T14:53:37.485202+00:00",
        "meta_object_name": "COSMOS 2251 DEB",
        "meta_object_id": "1993-036BKC",
        "meta_epoch": "2025-12-09T00:35:23.995392",
        "meta_mean_motion": 14.46107555,
        "meta_eccentricity": 0.00182852,
        "meta_inclination": 74.0311,
        "meta_ra_of_asc_node": 211.115,
        "meta_arg_of_pericenter": 314.7028,
        "meta_mean_anomaly": 45.264,
        "meta_ephemeris_type": 0,
        "meta_classification_type": "U",
        "meta_norad_cat_id": 37312,
        "meta_element_set_no": 999,
        "meta_rev_at_epoch": 86110,
        "meta_bstar": 0.00057614872,
        "meta_mean_motion_dot": 2.035e-05,
        "meta_mean_motion_ddot": 0,
        "tle_line1": "1 37312U 93036BKC 25343.02458328  .00002035  00000+0  57615-3 0  9992",
        "tle_line2": "2 37312  74.0311 211.1150 0018285 314.7028  45.2640 14.46107555861109"
      },
      "geometry": {
        "type": "Point",
        "coordinates": [
          -144.4104395227426,
          24.368817473469647
        ]
      }
    },
    {
      "type": "Feature",
      "properties": {
        "norad_id": 37316,
        "name": "COSMOS 2251 DEB",
        "group": "cosmos-2251-debris",
        "lat": -34.44306082239702,
        "lon": -143.3211169378495,
        "alt_km": 600.9405224105576,
        "timestamp": "2025-12-10T14:53:37.485211+00:00",
        "meta_object_name": "COSMOS 2251 DEB",
        "meta_object_id": "1993-036BKG",
        "meta_epoch": "2025-12-10T02:41:09.662496",
        "meta_mean_motion": 14.9431335,
        "meta_eccentricity": 0.00294662,
        "meta_inclination": 74.0196,
        "meta_ra_of_asc_node": 26.3697,
        "meta_arg_of_pericenter": 95.7328,
        "meta_mean_anomaly": 264.7217,
        "meta_ephemeris_type": 0,
        "meta_classification_type": "U",
        "meta_norad_cat_id": 37316,
        "meta_element_set_no": 999,
        "meta_rev_at_epoch": 86104,
        "meta_bstar": 0.0028761908,
        "meta_mean_motion_dot": 0.0003128,
        "meta_mean_motion_ddot": 0,
        "tle_line1": "1 37316U 93036BKG 25344.11191739  .00031280  00000+0  28762-2 0  9991",
        "tle_line2": "2 37316  74.0196  26.3697 0029466  95.7328 264.7217 14.94313350861044"
      },
      "geometry": {
        "type": "Point",
        "coordinates": [
          -143.3211169378495,
          -34.44306082239702
        ]
      }
    }
  ]
}